start=new Date('2022-11-03T00:00:00.000Z').valueOf();
sats=[{"DECAY_DATE":null,"PERIOD":"95.441","MEAN_MOTION":"15.08790964","GP_ID":"216793096","SITE":"AFETR","BSTAR":"0.00376300000000","ECCENTRICITY":"0.00020990","TLE_LINE1":"1 53138U 22083G   22306.75002315  .00060030  00000-0  37630-2 0  9991","FILE":"3643025","MEAN_MOTION_DOT":"0.00060030","RA_OF_ASC_NODE":"259.1012","REV_AT_EPOCH":"130","ELEMENT_SET_NO":"999","NORAD_CAT_ID":"53138","OBJECT_NAME":"STARLINK-4141","RCS_SIZE":"LARGE","PERIAPSIS":"538.443","EPHEMERIS_TYPE":"0","MEAN_ELEMENT_THEORY":"SGP4","REF_FRAME":"TEME","CENTER_NAME":"EARTH","CLASSIFICATION_TYPE":"U","MEAN_MOTION_DDOT":"0.0000000000000","INCLINATION":"53.2166","TLE_LINE2":"2 53138  53.2166 259.1012 0002099  28.8370  91.2603 15.08790964  1307","ARG_OF_PERICENTER":"28.8370","TIME_SYSTEM":"UTC","LAUNCH_DATE":"2022-07-17","APOAPSIS":"541.347","COUNTRY_CODE":"US","SEMIMAJOR_AXIS":"6918.030","OBJECT_TYPE":"PAYLOAD","MEAN_ANOMALY":"91.2603","OBJECT_ID":"2022-083G","EPOCH":"2022-11-02T18:00:02.000160"},{"REV_AT_EPOCH":"130","ELEMENT_SET_NO":"999","MEAN_MOTION_DOT":"0.00062557","RA_OF_ASC_NODE":"264.1132","FILE":"3643025","SITE":"AFETR","TLE_LINE1":"1 53139U 22083H   22306.75002315  .00062557  00000-0  39200-2 0  9993","ECCENTRICITY":"0.00023100","BSTAR":"0.00392000000000","GP_ID":"216792179","MEAN_MOTION":"15.08783345","PERIOD":"95.441","DECAY_DATE":null,"OBJECT_ID":"2022-083H","MEAN_ANOMALY":"47.7067","EPOCH":"2022-11-02T18:00:02.000160","SEMIMAJOR_AXIS":"6918.054","OBJECT_TYPE":"PAYLOAD","COUNTRY_CODE":"US","APOAPSIS":"541.517","ARG_OF_PERICENTER":"30.0832","TLE_LINE2":"2 53139  53.2154 264.1132 0002310  30.0832  47.7067 15.08783345  1303","LAUNCH_DATE":"2022-07-17","TIME_SYSTEM":"UTC","INCLINATION":"53.2154","MEAN_MOTION_DDOT":"0.0000000000000","CLASSIFICATION_TYPE":"U","CENTER_NAME":"EARTH","REF_FRAME":"TEME","PERIAPSIS":"538.320","RCS_SIZE":"LARGE","MEAN_ELEMENT_THEORY":"SGP4","EPHEMERIS_TYPE":"0","NORAD_CAT_ID":"53139","OBJECT_NAME":"STARLINK-4185"},{"FILE":"3643025","ELEMENT_SET_NO":"999","REV_AT_EPOCH":"130","RA_OF_ASC_NODE":"264.1132","MEAN_MOTION_DOT":"0.00056392","MEAN_MOTION":"15.08781828","PERIOD":"95.441","DECAY_DATE":null,"TLE_LINE1":"1 53140U 22083J   22306.75002315  .00056392  00000-0  35387-2 0  9997","BSTAR":"0.00353870000000","ECCENTRICITY":"0.00022110","SITE":"AFETR","GP_ID":"216792511","COUNTRY_CODE":"US","APOAPSIS":"541.453","LAUNCH_DATE":"2022-07-17","TIME_SYSTEM":"UTC","TLE_LINE2":"2 53140  53.2153 264.1132 0002211  27.5105  30.3011 15.08781828  1309","ARG_OF_PERICENTER":"27.5105","EPOCH":"2022-11-02T18:00:02.000160","OBJECT_ID":"2022-083J","MEAN_ANOMALY":"30.3011","OBJECT_TYPE":"PAYLOAD","SEMIMAJOR_AXIS":"6918.058","MEAN_ELEMENT_THEORY":"SGP4","EPHEMERIS_TYPE":"0","PERIAPSIS":"538.394","RCS_SIZE":"LARGE","OBJECT_NAME":"STARLINK-4170","NORAD_CAT_ID":"53140","MEAN_MOTION_DDOT":"0.0000000000000","INCLINATION":"53.2153","CLASSIFICATION_TYPE":"U","CENTER_NAME":"EARTH","REF_FRAME":"TEME"},{"MEAN_MOTION_DDOT":"0.0000000000000","INCLINATION":"53.2169","CLASSIFICATION_TYPE":"U","CENTER_NAME":"EARTH","REF_FRAME":"TEME","MEAN_ELEMENT_THEORY":"SGP4","EPHEMERIS_TYPE":"0","PERIAPSIS":"538.292","RCS_SIZE":"LARGE","OBJECT_NAME":"STARLINK-4103","NORAD_CAT_ID":"53141","EPOCH":"2022-11-02T18:00:02.000160","OBJECT_ID":"2022-083K","MEAN_ANOMALY":"133.2910","OBJECT_TYPE":"PAYLOAD","SEMIMAJOR_AXIS":"6917.998","COUNTRY_CODE":"US","APOAPSIS":"541.433","LAUNCH_DATE":"2022-07-17","TIME_SYSTEM":"UTC","ARG_OF_PERICENTER":"24.4942","TLE_LINE2":"2 53141  53.2169 264.0986 0002270  24.4942 133.2910 15.08801652  1302","TLE_LINE1":"1 53141U 22083K   22306.75002315  .00059455  00000-0  37263-2 0  9996","ECCENTRICITY":"0.00022700","BSTAR":"0.00372630000000","SITE":"AFETR","GP_ID":"216792763","MEAN_MOTION":"15.08801652","PERIOD":"95.440","DECAY_DATE":null,"ELEMENT_SET_NO":"999","REV_AT_EPOCH":"130","MEAN_MOTION_DOT":"0.00059455","RA_OF_ASC_NODE":"264.0986","FILE":"3643025"},{"FILE":"3643025","ELEMENT_SET_NO":"999","REV_AT_EPOCH":"130","RA_OF_ASC_NODE":"264.1135","MEAN_MOTION_DOT":"0.00059811","MEAN_MOTION":"15.08779833","PERIOD":"95.441","DECAY_DATE":null,"TLE_LINE1":"1 53142U 22083L   22306.75002315  .00059811  00000-0  37506-2 0  9993","ECCENTRICITY":"0.00019490","BSTAR":"0.00375060000000","SITE":"AFETR","GP_ID":"216793347","COUNTRY_CODE":"US","APOAPSIS":"541.278","LAUNCH_DATE":"2022-07-17","TIME_SYSTEM":"UTC","TLE_LINE2":"2 53142  53.2163 264.1135 0001949  31.4309  66.3464 15.08779833  1306","ARG_OF_PERICENTER":"31.4309","EPOCH":"2022-11-02T18:00:02.000160","OBJECT_ID":"2022-083L","MEAN_ANOMALY":"66.3464","OBJECT_TYPE":"PAYLOAD","SEMIMAJOR_AXIS":"6918.064","MEAN_ELEMENT_THEORY":"SGP4","EPHEMERIS_TYPE":"0","RCS_SIZE":"LARGE","PERIAPSIS":"538.581","OBJECT_NAME":"STARLINK-4101","NORAD_CAT_ID":"53142","MEAN_MOTION_DDOT":"0.0000000000000","INCLINATION":"53.2163","CLASSIFICATION_TYPE":"U","CENTER_NAME":"EARTH","REF_FRAME":"TEME"},{"MEAN_ELEMENT_THEORY":"SGP4","EPHEMERIS_TYPE":"0","RCS_SIZE":"LARGE","PERIAPSIS":"538.143","OBJECT_NAME":"STARLINK-4102","NORAD_CAT_ID":"53143","MEAN_MOTION_DDOT":"0.0000000000000","INCLINATION":"53.2179","CLASSIFICATION_TYPE":"U","CENTER_NAME":"EARTH","REF_FRAME":"TEME","COUNTRY_CODE":"US","APOAPSIS":"541.414","TIME_SYSTEM":"UTC","LAUNCH_DATE":"2022-07-17","TLE_LINE2":"2 53143  53.2179 263.6558 0002364  42.8469 317.2707 15.08829199 16611","ARG_OF_PERICENTER":"42.8469","EPOCH":"2022-11-02T20:23:43.984896","OBJECT_ID":"2022-083M","MEAN_ANOMALY":"317.2707","OBJECT_TYPE":"PAYLOAD","SEMIMAJOR_AXIS":"6917.913","MEAN_MOTION":"15.08829199","PERIOD":"95.438","DECAY_DATE":null,"TLE_LINE1":"1 53143U 22083M   22306.84981464 -.00000827  00000-0 -33861-4 0  9992","ECCENTRICITY":"0.00023640","BSTAR":"-0.00003386100000","SITE":"AFETR","GP_ID":"216792597","FILE":"3643025","ELEMENT_SET_NO":"999","REV_AT_EPOCH":"1661","RA_OF_ASC_NODE":"263.6558","MEAN_MOTION_DOT":"-0.00000827"},{"FILE":"3643025","REV_AT_EPOCH":"130","ELEMENT_SET_NO":"999","RA_OF_ASC_NODE":"264.1084","MEAN_MOTION_DOT":"0.00059755","PERIOD":"95.441","MEAN_MOTION":"15.08780568","DECAY_DATE":null,"SITE":"AFETR","ECCENTRICITY":"0.00023370","BSTAR":"0.00374700000000","TLE_LINE1":"1 53144U 22083N   22306.75002315  .00059755  00000-0  37470-2 0  9992","GP_ID":"216792929","APOAPSIS":"541.544","COUNTRY_CODE":"US","ARG_OF_PERICENTER":"22.8769","TLE_LINE2":"2 53144  53.2177 264.1084 0002337  22.8769  94.9346 15.08780568  1305","TIME_SYSTEM":"UTC","LAUNCH_DATE":"2022-07-17","MEAN_ANOMALY":"94.9346","OBJECT_ID":"2022-083N","EPOCH":"2022-11-02T18:00:02.000160","SEMIMAJOR_AXIS":"6918.062","OBJECT_TYPE":"PAYLOAD","RCS_SIZE":"LARGE","PERIAPSIS":"538.310","EPHEMERIS_TYPE":"0","MEAN_ELEMENT_THEORY":"SGP4","NORAD_CAT_ID":"53144","OBJECT_NAME":"STARLINK-4100","CLASSIFICATION_TYPE":"U","MEAN_MOTION_DDOT":"0.0000000000000","INCLINATION":"53.2177","REF_FRAME":"TEME","CENTER_NAME":"EARTH"},{"FILE":"3643025","ELEMENT_SET_NO":"999","REV_AT_EPOCH":"130","MEAN_MOTION_DOT":"0.00062320","RA_OF_ASC_NODE":"264.0988","PERIOD":"95.441","MEAN_MOTION":"15.08785430","DECAY_DATE":null,"BSTAR":"0.00390520000000","ECCENTRICITY":"0.00020310","TLE_LINE1":"1 53145U 22083P   22306.75002315  .00062320  00000-0  39052-2 0  9993","SITE":"AFETR","GP_ID":"216792346","APOAPSIS":"541.317","COUNTRY_CODE":"US","LAUNCH_DATE":"2022-07-17","TIME_SYSTEM":"UTC","TLE_LINE2":"2 53145  53.2172 264.0988 0002031  35.8815 181.9222 15.08785430  1303","ARG_OF_PERICENTER":"35.8815","EPOCH":"2022-11-02T18:00:02.000160","MEAN_ANOMALY":"181.9222","OBJECT_ID":"2022-083P","OBJECT_TYPE":"PAYLOAD","SEMIMAJOR_AXIS":"6918.047","EPHEMERIS_TYPE":"0","MEAN_ELEMENT_THEORY":"SGP4","RCS_SIZE":"LARGE","PERIAPSIS":"538.507","OBJECT_NAME":"STARLINK-4106","NORAD_CAT_ID":"53145","CLASSIFICATION_TYPE":"U","INCLINATION":"53.2172","MEAN_MOTION_DDOT":"0.0000000000000","REF_FRAME":"TEME","CENTER_NAME":"EARTH"},{"FILE":"3642752","REV_AT_EPOCH":"1724","ELEMENT_SET_NO":"999","RA_OF_ASC_NODE":"263.6241","MEAN_MOTION_DOT":"0.00000660","PERIOD":"95.438","MEAN_MOTION":"15.08836328","DECAY_DATE":null,"SITE":"AFETR","BSTAR":"0.00005960000000","ECCENTRICITY":"0.00018890","TLE_LINE1":"1 53146U 22083Q   22306.85716986  .00000660  00000-0  59600-4 0  9993","GP_ID":"216761339","APOAPSIS":"541.063","COUNTRY_CODE":"US","ARG_OF_PERICENTER":"39.4429","TLE_LINE2":"2 53146  53.2194 263.6241 0001889  39.4429 320.6700 15.08836328 17242","LAUNCH_DATE":"2022-07-17","TIME_SYSTEM":"UTC","MEAN_ANOMALY":"320.6700","OBJECT_ID":"2022-083Q","EPOCH":"2022-11-02T20:34:19.475904","SEMIMAJOR_AXIS":"6917.892","OBJECT_TYPE":"PAYLOAD","PERIAPSIS":"538.450","RCS_SIZE":"LARGE","EPHEMERIS_TYPE":"0","MEAN_ELEMENT_THEORY":"SGP4","NORAD_CAT_ID":"53146","OBJECT_NAME":"STARLINK-4099","CLASSIFICATION_TYPE":"U","MEAN_MOTION_DDOT":"0.0000000000000","INCLINATION":"53.2194","REF_FRAME":"TEME","CENTER_NAME":"EARTH"},{"BSTAR":"-0.00007196500000","ECCENTRICITY":"0.00018940","TLE_LINE1":"1 53147U 22083R   22306.83877523 -.00001433  00000-0 -71965-4 0  9996","SITE":"AFETR","GP_ID":"216792180","PERIOD":"95.438","MEAN_MOTION":"15.08827399","DECAY_DATE":null,"ELEMENT_SET_NO":"999","REV_AT_EPOCH":"1726","RA_OF_ASC_NODE":"263.6966","MEAN_MOTION_DOT":"-0.00001433","FILE":"3643025","CLASSIFICATION_TYPE":"U","MEAN_MOTION_DDOT":"0.0000000000000","INCLINATION":"53.2163","REF_FRAME":"TEME","CENTER_NAME":"EARTH","EPHEMERIS_TYPE":"0","MEAN_ELEMENT_THEORY":"SGP4","RCS_SIZE":"LARGE","PERIAPSIS":"538.474","OBJECT_NAME":"STARLINK-4094","NORAD_CAT_ID":"53147","EPOCH":"2022-11-02T20:07:50.179872","MEAN_ANOMALY":"316.7898","OBJECT_ID":"2022-083R","OBJECT_TYPE":"PAYLOAD","SEMIMAJOR_AXIS":"6917.919","APOAPSIS":"541.094","COUNTRY_CODE":"US","LAUNCH_DATE":"2022-07-17","TIME_SYSTEM":"UTC","TLE_LINE2":"2 53147  53.2163 263.6966 0001894  43.3243 316.7898 15.08827399 17261","ARG_OF_PERICENTER":"43.3243"}];
